{"type": "FeatureCollection", "features": [ {"type": "Feature", "properties": {"norad_id": 38552, "name": "METEOSAT-10 (MSG-3)", "group": "weather", "lat": -4.130736199316114, "lon": -16.313231984969107, "alt_km": 35783.57278453999, "timestamp": "2025-12-08T17:43:04.535732+00:00", "meta": {"OBJECT_NAME": "METEOSAT-10 (MSG-3)", "OBJECT_ID": "2012-035B", "EPOCH": "2025-12-08T01:37:13.932768", "MEAN_MOTION": 1.00273522, "ECCENTRICITY": 8.845e-05, "INCLINATION": 4.2178, "RA_OF_ASC_NODE": 61.7316, "ARG_OF_PERICENTER": 234.9391, "MEAN_ANOMALY": 164.8501, "EPHEMERIS_TYPE": 0, "CLASSIFICATION_TYPE": "U", "NORAD_CAT_ID": 38552, "ELEMENT_SET_NO": 999, "REV_AT_EPOCH": 4894, "BSTAR": 0, "MEAN_MOTION_DOT": -4e-08, "MEAN_MOTION_DDOT": 0}, "tle": {"line1": "1 38552U 12035B   25342.06752237 -.00000004  00000+0  00000+0 0  9995", "line2": "2 38552   4.2178  61.7316 0000884 234.9391 164.8501  1.00273522 48944"}}, "geometry": {"type": "Point", "coordinates": [-16.313231984969107, -4.130736199316114]}}, {"type": "Feature", "properties": {"norad_id": 38771, "name": "METOP-B", "group": "weather", "lat": 35.970161407576754, "lon": -140.8696319345576, "alt_km": 816.1314057151376, "timestamp": "2025-12-08T17:43:04.535744+00:00", "meta": {"OBJECT_NAME": "METOP-B", "OBJECT_ID": "2012-049A", "EPOCH": "2025-12-08T06:54:31.546368", "MEAN_MOTION": 14.21406045, "ECCENTRICITY": 0.00027281, "INCLINATION": 98.6805, "RA_OF_ASC_NODE": 32.322, "ARG_OF_PERICENTER": 153.9624, "MEAN_ANOMALY": 206.1691, "EPHEMERIS_TYPE": 0, "CLASSIFICATION_TYPE": "U", "NORAD_CAT_ID": 38771, "ELEMENT_SET_NO": 999, "REV_AT_EPOCH": 68614, "BSTAR": 0.0001519826, "MEAN_MOTION_DOT": 2.88e-06, "MEAN_MOTION_DDOT": 0}, "tle": {"line1": "1 38771U 12049A   25342.28786512  .00000288  00000+0  15198-3 0  9991", "line2": "2 38771  98.6805  32.3220 0002728 153.9624 206.1691 14.21406045686142"}}, "geometry": {"type": "Point", "coordinates": [-140.8696319345576, 35.970161407576754]}}, {"type": "Feature", "properties": {"norad_id": 39216, "name": "INSAT-3D", "group": "weather", "lat": 0.6910728666606685, "lon": 113.02976817695247, "alt_km": 35791.05691429307, "timestamp": "2025-12-08T17:43:04.535757+00:00", "meta": {"OBJECT_NAME": "INSAT-3D", "OBJECT_ID": "2013-038B", "EPOCH": "2025-12-08T07:22:20.554176", "MEAN_MOTION": 1.00271656, "ECCENTRICITY": 0.00017005, "INCLINATION": 1.4333, "RA_OF_ASC_NODE": 85.0358, "ARG_OF_PERICENTER": 161.501, "MEAN_ANOMALY": 70.9097, "EPHEMERIS_TYPE": 0, "CLASSIFICATION_TYPE": "U", "NORAD_CAT_ID": 39216, "ELEMENT_SET_NO": 999, "REV_AT_EPOCH": 4516, "BSTAR": 0, "MEAN_MOTION_DOT": -3.37e-06, "MEAN_MOTION_DDOT": 0}, "tle": {"line1": "1 39216U 13038B   25342.30718234 -.00000337  00000+0  00000+0 0  9992", "line2": "2 39216   1.4333  85.0358 0001700 161.5010  70.9097  1.00271656 45164"}}, "geometry": {"type": "Point", "coordinates": [113.02976817695247, 0.6910728666606685]}}, {"type": "Feature", "properties": {"norad_id": 39260, "name": "FENGYUN 3C", "group": "weather", "lat": 65.94669938488502, "lon": 160.13004878930604, "alt_km": 834.4391382370386, "timestamp": "2025-12-08T17:43:04.535769+00:00", "meta": {"OBJECT_NAME": "FENGYUN 3C", "OBJECT_ID": "2013-052A", "EPOCH": "2025-12-08T05:18:48.099456", "MEAN_MOTION": 14.15694244, "ECCENTRICITY": 0.00140352, "INCLINATION": 98.476, "RA_OF_ASC_NODE": 320.1215, "ARG_OF_PERICENTER": 209.4658, "MEAN_ANOMALY": 150.5727, "EPHEMERIS_TYPE": 0, "CLASSIFICATION_TYPE": "U", "NORAD_CAT_ID": 39260, "ELEMENT_SET_NO": 999, "REV_AT_EPOCH": 63154, "BSTAR": 0.00013382439, "MEAN_MOTION_DOT": 2.21e-06, "MEAN_MOTION_DDOT": 0}, "tle": {"line1": "1 39260U 13052A   25342.22139004  .00000221  00000+0  13382-3 0  9992", "line2": "2 39260  98.4760 320.1215 0014035 209.4658 150.5727 14.15694244631543"}}, "geometry": {"type": "Point", "coordinates": [160.13004878930604, 65.94669938488502]}}, {"type": "Feature", "properties": {"norad_id": 40069, "name": "METEOR-M 2", "group": "weather", "lat": 11.967324223741246, "lon": -41.33796136921358, "alt_km": 824.9356566109309, "timestamp": "2025-12-08T17:43:04.535780+00:00", "meta": {"OBJECT_NAME": "METEOR-M 2", "OBJECT_ID": "2014-037A", "EPOCH": "2025-12-08T05:50:05.737344", "MEAN_MOTION": 14.21383936, "ECCENTRICITY": 0.00048594, "INCLINATION": 98.4898, "RA_OF_ASC_NODE": 320.0002, "ARG_OF_PERICENTER": 223.9667, "MEAN_ANOMALY": 136.1125, "EPHEMERIS_TYPE": 0, "CLASSIFICATION_TYPE": "U", "NORAD_CAT_ID": 40069, "ELEMENT_SET_NO": 999, "REV_AT_EPOCH": 59219, "BSTAR": 0.00015747117, "MEAN_MOTION_DOT": 3.02e-06, "MEAN_MOTION_DDOT": 0}, "tle": {"line1": "1 40069U 14037A   25342.24312196  .00000302  00000+0  15747-3 0  9999", "line2": "2 40069  98.4898 320.0002 0004859 223.9667 136.1125 14.21383936592190"}}, "geometry": {"type": "Point", "coordinates": [-41.33796136921358, 11.967324223741246]}}, {"type": "Feature", "properties": {"norad_id": 40267, "name": "HIMAWARI-8", "group": "weather", "lat": 0.015309584457990268, "lon": 124.16000763438488, "alt_km": 35792.3172545542, "timestamp": "2025-12-08T17:43:04.535792+00:00", "meta": {"OBJECT_NAME": "HIMAWARI-8", "OBJECT_ID": "2014-060A", "EPOCH": "2025-12-07T22:51:34.164864", "MEAN_MOTION": 1.00269403, "ECCENTRICITY": 0.00013437, "INCLINATION": 0.0504, "RA_OF_ASC_NODE": 135.4496, "ARG_OF_PERICENTER": 154.0261, "MEAN_ANOMALY": 271.0486, "EPHEMERIS_TYPE": 0, "CLASSIFICATION_TYPE": "U", "NORAD_CAT_ID": 40267, "ELEMENT_SET_NO": 999, "REV_AT_EPOCH": 4084, "BSTAR": 0, "MEAN_MOTION_DOT": -2.73e-06, "MEAN_MOTION_DDOT": 0}, "tle": {"line1": "1 40267U 14060A   25341.95247876 -.00000273  00000+0  00000+0 0  9994", "line2": "2 40267   0.0504 135.4496 0001343 154.0261 271.0486  1.00269403 40841"}}, "geometry": {"type": "Point", "coordinates": [124.16000763438488, 0.015309584457990268]}}, {"type": "Feature", "properties": {"norad_id": 40367, "name": "FENGYUN 2G", "group": "weather", "lat": 0.7384888266583378, "lon": 83.10806949531222, "alt_km": 35800.83725232206, "timestamp": "2025-12-08T17:43:04.535804+00:00", "meta": {"OBJECT_NAME": "FENGYUN 2G", "OBJECT_ID": "2014-090A", "EPOCH": "2025-12-07T19:14:37.154688", "MEAN_MOTION": 1.00265807, "ECCENTRICITY": 0.00031202, "INCLINATION": 5.1554, "RA_OF_ASC_NODE": 75.1544, "ARG_OF_PERICENTER": 196.9461, "MEAN_ANOMALY": 193.0185, "EPHEMERIS_TYPE": 0, "CLASSIFICATION_TYPE": "U", "NORAD_CAT_ID": 40367, "ELEMENT_SET_NO": 999, "REV_AT_EPOCH": 4008, "BSTAR": 0, "MEAN_MOTION_DOT": -3e-06, "MEAN_MOTION_DDOT": 0}, "tle": {"line1": "1 40367U 14090A   25341.80181892 -.00000300  00000+0  00000+0 0  9998", "line2": "2 40367   5.1554  75.1544 0003120 196.9461 193.0185  1.00265807 40088"}}, "geometry": {"type": "Point", "coordinates": [83.10806949531222, 0.7384888266583378]}}, {"type": "Feature", "properties": {"norad_id": 40732, "name": "METEOSAT-11 (MSG-4)", "group": "weather", "lat": -2.6744338468751225, "lon": -7.117239684594971, "alt_km": 35791.8411271667, "timestamp": "2025-12-08T17:43:04.535817+00:00", "meta": {"OBJECT_NAME": "METEOSAT-11 (MSG-4)", "OBJECT_ID": "2015-034A", "EPOCH": "2025-12-08T06:47:59.170272", "MEAN_MOTION": 1.00266103, "ECCENTRICITY": 9.754e-05, "INCLINATION": 2.7242, "RA_OF_ASC_NODE": 72.0144, "ARG_OF_PERICENTER": 120.6202, "MEAN_ANOMALY": 356.0214, "EPHEMERIS_TYPE": 0, "CLASSIFICATION_TYPE": "U", "NORAD_CAT_ID": 40732, "ELEMENT_SET_NO": 999, "REV_AT_EPOCH": 530, "BSTAR": 0, "MEAN_MOTION_DOT": 6.3e-07, "MEAN_MOTION_DDOT": 0}, "tle": {"line1": "1 40732U 15034A   25342.28332373  .00000063  00000+0  00000+0 0  9993", "line2": "2 40732   2.7242  72.0144 0000975 120.6202 356.0214  1.00266103  5305"}}, "geometry": {"type": "Point", "coordinates": [-7.117239684594971, -2.6744338468751225]}}, {"type": "Feature", "properties": {"norad_id": 41105, "name": "ELEKTRO-L 2", "group": "weather", "lat": -6.0442087150926165, "lon": -31.035801976716655, "alt_km": 35777.12576046865, "timestamp": "2025-12-08T17:43:04.535829+00:00", "meta": {"OBJECT_NAME": "ELEKTRO-L 2", "OBJECT_ID": "2015-074A", "EPOCH": "2025-12-08T01:32:59.339616", "MEAN_MOTION": 1.00272095, "ECCENTRICITY": 0.00038959, "INCLINATION": 6.2137, "RA_OF_ASC_NODE": 72.8831, "ARG_OF_PERICENTER": 202.1976, "MEAN_ANOMALY": 170.7351, "EPHEMERIS_TYPE": 0, "CLASSIFICATION_TYPE": "U", "NORAD_CAT_ID": 41105, "ELEMENT_SET_NO": 999, "REV_AT_EPOCH": 3659, "BSTAR": 0, "MEAN_MOTION_DOT": -1.16e-06, "MEAN_MOTION_DDOT": 0}, "tle": {"line1": "1 41105U 15074A   25342.06457569 -.00000116  00000+0  00000+0 0  9993", "line2": "2 41105   6.2137  72.8831 0003895 202.1976 170.7351  1.00272095 36596"}}, "geometry": {"type": "Point", "coordinates": [-31.035801976716655, -6.0442087150926165]}}, {"type": "Feature", "properties": {"norad_id": 41752, "name": "INSAT-3DR", "group": "weather", "lat": -0.016433159472722204, "lon": 57.603158879124, "alt_km": 35838.58519463747, "timestamp": "2025-12-08T17:43:04.535842+00:00", "meta": {"OBJECT_NAME": "INSAT-3DR", "OBJECT_ID": "2016-054A", "EPOCH": "2025-12-08T03:41:02.076000", "MEAN_MOTION": 1.00270129, "ECCENTRICITY": 0.00145471, "INCLINATION": 0.0808, "RA_OF_ASC_NODE": 86.9634, "ARG_OF_PERICENTER": 183.03, "MEAN_ANOMALY": 296.4413, "EPHEMERIS_TYPE": 0, "CLASSIFICATION_TYPE": "U", "NORAD_CAT_ID": 41752, "ELEMENT_SET_NO": 999, "REV_AT_EPOCH": 3390, "BSTAR": 0, "MEAN_MOTION_DOT": -7.4e-07, "MEAN_MOTION_DDOT": 0}, "tle": {"line1": "1 41752U 16054A   25342.15349625 -.00000074  00000+0  00000+0 0  9996", "line2": "2 41752   0.0808  86.9634 0014547 183.0300 296.4413  1.00270129 33905"}}, "geometry": {"type": "Point", "coordinates": [57.603158879124, -0.016433159472722204]}}]}